0 DELTA 1 DEB
1 03123U 67114D   13283.18010550 -.00000056  00000-0 -53682-4 0  2607
2 03123 102.4521 168.5525 0028117 176.9861 338.3325 12.47974785 91534
0 DELTA 1 DEB
1 03123U 67114D   13285.40209170 -.00000035  00000-0  89758-4 0  2612
2 03123 102.4519 170.8580 0028131 172.8445 241.1079 12.47974791 91812
0 DELTA 1 DEB
1 03123U 67114D   13287.40603617 -.00000024  00000-0  16659-3 0  2626
2 03123 102.4516 172.9372 0028149 169.0811 244.3082 12.47974775 92064
0 DELTA 1 DEB
1 03123U 67114D   13289.40995605 -.00000022  00000-0  17765-3 0  2637
2 03123 102.4512 175.0164 0028158 165.3457 247.3696 12.47974889 92316
0 DELTA 1 DEB
1 03123U 67114D   13291.41456582 -.00000026  00000-0  15136-3 0  2642
2 03123 102.4508 177.0964 0028177 161.6226 253.5176 12.47975053 92568
0 DELTA 1 DEB
1 03123U 67114D   13293.99381720 -.00000041  00000-0  45509-4 0  2654
2 03123 102.4505 179.7725 0028199 156.8675 321.3339 12.47975245 92880
0 DELTA 1 DEB
1 03123U 67114D   13295.99769351 -.00000049  00000-0 -71292-5 0  2665
2 03123 102.4504 181.8512 0028213 153.1614 324.1724 12.47975286 93130
